OBJECT_NAME,OBJECT_ID,EPOCH,MEAN_MOTION,ECCENTRICITY,INCLINATION,RA_OF_ASC_NODE,ARG_OF_PERICENTER,MEAN_ANOMALY,EPHEMERIS_TYPE,CLASSIFICATION_TYPE,NORAD_CAT_ID,ELEMENT_SET_NO,REV_AT_EPOCH,BSTAR,MEAN_MOTION_DOT,MEAN_MOTION_DDOT
PERSEUS-M1,2014-033AF,2026-05-12T20:15:14.784768,14.95508185,.00128522,97.9627,76.4037,58.9907,301.2574,0,U,40039,999,64535,.1184452E-3,.1253E-4,0
POLYITAN-1,2014-033AJ,2026-05-12T19:05:25.514016,15.32014165,.0005374,98.0975,155.7426,266.9927,93.0697,0,U,40042,999,64817,.364208E-3,.11177E-3,0
TIGRISAT,2014-033AK,2026-05-12T22:40:10.017696,14.85007400,.00492818,97.7790,283.7766,188.6468,171.3904,0,U,40043,999,64039,.17060331E-3,.1431E-4,0
AEROCUBE 6A,2014-033AM,2026-05-12T21:15:34.021152,14.97708037,.00402644,97.7215,300.2274,132.1030,228.3627,0,U,40045,999,64133,.40138406E-3,.4723E-4,0
AEROCUBE 6B,2014-033AN,2026-05-12T22:07:52.100256,14.99129895,.00379476,97.7171,299.9829,125.4404,235.0371,0,U,40046,999,64147,.34425664E-3,.4188E-4,0
CANX-4,2014-034C,2026-05-12T21:21:05.445504,14.81197197,.0013881,98.3171,6.9004,121.4274,238.8296,0,U,40055,999,63930,.78069839E-4,.551E-5,0
CANX-5,2014-034D,2026-05-12T21:19:25.260384,14.81214224,.00138853,98.3172,6.9405,121.6240,238.6328,0,U,40056,999,63011,.7794633E-4,.55E-5,0
UKUBE-1,2014-037F,2026-05-12T22:10:41.128896,15.12974360,.00004334,98.4246,132.5097,60.1439,299.9832,0,U,40074,999,64322,.28994924E-3,.5037E-4,0
BRITE-PL2 (HEWELIUSZ),2014-049B,2026-05-12T21:19:19.486272,14.94457435,.00131057,97.9057,244.6278,222.5679,137.4526,0,U,40119,999,63617,.74445356E-4,.744E-5,0
AEROCUBE 5C,2015-058B,2026-05-12T21:33:55.814688,14.91248454,.01297917,64.7690,12.3544,77.1472,284.4104,0,U,40965,999,36039,.18939047E-3,.204E-4,0
AEROCUBE 7,2015-058C,2026-05-12T22:16:15.626496,14.95445236,.01195987,64.7636,355.2325,75.8278,285.6089,0,U,40966,999,36068,.24212506E-3,.2917E-4,0
FOX-1A (AO-85),2015-058D,2026-05-12T22:25:49.921248,14.90756612,.01289767,64.7769,28.5193,70.4158,291.0825,0,U,40967,999,10831,.20010318E-3,.2132E-4,0
SINOD-D 1,2015-058E,2026-05-12T21:50:33.741600,14.95623413,.01174614,64.7765,9.3626,67.2213,294.1261,0,U,40968,999,11138,.24695454E-3,.2978E-4,0
SNAP-3 ALICE,2015-058G,2026-05-12T09:06:33.108768,15.53340210,.0032768,64.7532,226.9821,30.9340,329.3724,0,U,40970,999,11131,.79509E-3,.51771E-3,0
LMRST-SAT,2015-058H,2026-05-12T22:45:17.145504,14.90381942,.01307664,64.7775,24.7493,72.4413,289.0936,0,U,40971,999,10830,.19654561E-3,.2078E-4,0
SNAP-3 EDDIE,2015-058J,2026-05-12T20:19:54.950592,15.54530871,.0033276,64.7453,216.3592,34.4338,325.8951,0,U,40972,999,11352,.76454881E-3,.52043E-3,0
PROPCUBE 3,2015-058K,2026-05-12T22:27:38.982240,14.94011351,.01229295,64.7701,2.6539,73.9554,287.5056,0,U,40973,999,10953,.22012597E-3,.2551E-4,0
BISONSAT,2015-058L,2026-05-12T19:15:07.475904,15.15462139,.00787165,64.7595,287.9745,62.5712,298.3390,0,U,40974,999,11025,.39633869E-3,.7942E-4,0
SNAP-3 JIMI,2015-058M,2026-05-12T21:40:49.757088,15.01929468,.01049311,64.7659,331.3768,69.9995,291.2385,0,U,40975,999,10892,.29018637E-3,.4099E-4,0
PROPCUBE 1 (FLORA),2015-058N,2026-05-12T22:30:25.920000,14.89015549,.01295741,64.7760,44.4649,74.7222,286.8170,0,U,40976,999,11101,.18896053E-3,.191E-4,0
SINOD-D 3,2015-058P,2026-05-12T23:04:30.958752,14.93739459,.01180645,64.7741,25.7944,72.2158,289.1797,0,U,40977,999,10949,.24385577E-3,.2791E-4,0
HORYU-4,2016-012D,2026-05-12T20:48:56.750400,15.78006687,.00054611,30.9892,334.3982,23.8940,336.1970,0,U,41340,999,56520,.74880797E-3,.135031E-2,0
RAVAN,2016-067B,2026-05-12T22:12:56.323296,15.51411029,.00072324,97.9946,18.5175,120.1704,240.0264,0,U,41849,999,52222,.51015347E-3,.30048E-3,0
CELTEE 1,2016-067C,2026-05-12T01:17:30.486048,15.19318741,.00018418,98.0723,356.1585,60.3871,299.7545,0,U,41850,999,52039,.14983376E-3,.3086E-4,0
OPTICUBE 04,2016-067D,2026-05-12T00:28:53.366304,15.09502308,.00144165,98.0738,342.4139,237.4226,122.5610,0,U,41851,999,51971,.76477622E-4,.1156E-4,0
AEROCUBE 8D,2016-067E,2026-05-12T08:59:41.562240,15.23885872,.0001926,98.0737,359.8283,249.6458,110.4571,0,U,41852,999,52061,.19826E-3,.4704E-4,0
AEROCUBE 8C,2016-067F,2026-05-12T09:43:52.716864,15.24123976,.0005476,98.0607,357.1359,168.8426,191.2932,0,U,41853,999,52061,.18565E-3,.4433E-4,0
CORVUS BC2,2017-042X,2026-05-12T09:15:57.554784,15.06064122,.0011929,97.4038,295.1419,229.9139,130.1043,0,U,42846,999,48167,.16048E-3,.2286E-4,0
CORVUS BC1,2017-042Y,2026-05-12T10:49:43.001760,15.06236515,.0011269,97.4070,295.9952,203.3955,156.6762,0,U,42847,999,48171,.15841E-3,.2267E-4,0
MAKERSAT 0,2017-073D,2026-05-12T04:12:10.429344,15.30547279,.01118347,97.4681,14.4471,41.9670,319.0072,0,U,43016,999,46095,.44166751E-3,.15764E-3,0
