PERSEUS-M1              
1 40039U 14033AF  26132.84392112  .00001253  00000+0  11845-3 0  9993
2 40039  97.9627  76.4037 0012852  58.9907 301.2574 14.95508185645352
POLYITAN-1              
1 40042U 14033AJ  26132.79543419  .00011177  00000+0  36421-3 0  9992
2 40042  98.0975 155.7426 0005374 266.9927  93.0697 15.32014165648178
TIGRISAT                
1 40043U 14033AK  26132.94456039  .00001431  00000+0  17060-3 0  9991
2 40043  97.7790 283.7766 0049281 188.6468 171.3904 14.85007400640392
AEROCUBE 6A             
1 40045U 14033AM  26132.88581043  .00004723  00000+0  40138-3 0  9999
2 40045  97.7215 300.2274 0040264 132.1030 228.3627 14.97708037641333
AEROCUBE 6B             
1 40046U 14033AN  26132.92213079  .00004188  00000+0  34426-3 0  9994
2 40046  97.7171 299.9829 0037947 125.4404 235.0371 14.99129895641476
CANX-4                  
1 40055U 14034C   26132.88964636  .00000551  00000+0  78070-4 0  9996
2 40055  98.3171   6.9004 0013881 121.4274 238.8296 14.81197197639303
CANX-5                  
1 40056U 14034D   26132.88848681  .00000550  00000+0  77946-4 0  9998
2 40056  98.3172   6.9405 0013885 121.6240 238.6328 14.81214224630114
UKUBE-1                 
1 40074U 14037F   26132.92408714  .00005037  00000+0  28995-3 0  9999
2 40074  98.4246 132.5097 0000433  60.1439 299.9832 15.12974360643227
BRITE-PL2 (HEWELIUSZ)   
1 40119U 14049B   26132.88841998  .00000744  00000+0  74445-4 0  9994
2 40119  97.9057 244.6278 0013105 222.5679 137.4526 14.94457435636177
AEROCUBE 5C             
1 40965U 15058B   26132.89856267  .00002040  00000+0  18939-3 0  9996
2 40965  64.7690  12.3544 0129791  77.1472 284.4104 14.91248454360390
AEROCUBE 7              
1 40966U 15058C   26132.92795864  .00002917  00000+0  24213-3 0  9991
2 40966  64.7636 355.2325 0119598  75.8278 285.6089 14.95445236360688
FOX-1A (AO-85)          
1 40967U 15058D   26132.93460557  .00002132  00000+0  20010-3 0  9991
2 40967  64.7769  28.5193 0128976  70.4158 291.0825 14.90756612108314
SINOD-D 1               
1 40968U 15058E   26132.91011275  .00002978  00000+0  24695-3 0  9990
2 40968  64.7765   9.3626 0117461  67.2213 294.1261 14.95623413111388
SNAP-3 ALICE            
1 40970U 15058G   26132.37954987  .00051771  00000+0  79509-3 0  9998
2 40970  64.7532 226.9821 0032768  30.9340 329.3724 15.53340210111315
LMRST-SAT               
1 40971U 15058H   26132.94811511  .00002078  00000+0  19655-3 0  9999
2 40971  64.7775  24.7493 0130766  72.4413 289.0936 14.90381942108302
SNAP-3 EDDIE            
1 40972U 15058J   26132.84716378  .00052043  00000+0  76455-3 0  9992
2 40972  64.7453 216.3592 0033276  34.4338 325.8951 15.54530871113521
PROPCUBE 3              
1 40973U 15058K   26132.93586785  .00002551  00000+0  22013-3 0  9990
2 40973  64.7701   2.6539 0122929  73.9554 287.5056 14.94011351109533
BISONSAT                
1 40974U 15058L   26132.80216986  .00007942  00000+0  39634-3 0  9996
2 40974  64.7595 287.9745 0078716  62.5712 298.3390 15.15462139110256
SNAP-3 JIMI             
1 40975U 15058M   26132.90335367  .00004099  00000+0  29019-3 0  9999
2 40975  64.7659 331.3768 0104931  69.9995 291.2385 15.01929468108925
PROPCUBE 1 (FLORA)      
1 40976U 15058N   26132.93780000  .00001910  00000+0  18896-3 0  9991
2 40976  64.7760  44.4649 0129574  74.7222 286.8170 14.89015549111013
SINOD-D 3               
1 40977U 15058P   26132.96146943  .00002791  00000+0  24386-3 0  9996
2 40977  64.7741  25.7944 0118064  72.2158 289.1797 14.93739459109494
HORYU-4                 
1 41340U 16012D   26132.86732350  .00135031  00000+0  74881-3 0  9993
2 41340  30.9892 334.3982 0005461  23.8940 336.1970 15.78006687565204
RAVAN                   
1 41849U 16067B   26132.92565189  .00030048  00000+0  51015-3 0  9994
2 41849  97.9946  18.5175 0007232 120.1704 240.0264 15.51411029522228
CELTEE 1                
1 41850U 16067C   26132.05382507  .00003086  00000+0  14983-3 0  9996
2 41850  98.0723 356.1585 0001841  60.3871 299.7545 15.19318741520391
OPTICUBE 04             
1 41851U 16067D   26132.02006211  .00001156  00000+0  76478-4 0  9993
2 41851  98.0738 342.4139 0014416 237.4226 122.5610 15.09502308519717
AEROCUBE 8D             
1 41852U 16067E   26132.37478660  .00004704  00000+0  19826-3 0  9998
2 41852  98.0737 359.8283 0001926 249.6458 110.4571 15.23885872520612
AEROCUBE 8C             
1 41853U 16067F   26132.40547126  .00004433  00000+0  18565-3 0  9995
2 41853  98.0607 357.1359 0005476 168.8426 191.2932 15.24123976520614
CORVUS BC2              
1 42846U 17042X   26132.38608281  .00002286  00000+0  16048-3 0  9997
2 42846  97.4038 295.1419 0011929 229.9139 130.1043 15.06064122481670
CORVUS BC1              
1 42847U 17042Y   26132.45119215  .00002267  00000+0  15841-3 0  9999
2 42847  97.4070 295.9952 0011269 203.3955 156.6762 15.06236515481719
MAKERSAT 0              
1 43016U 17073D   26132.17512071  .00015764  00000+0  44167-3 0  9997
2 43016  97.4681  14.4471 0111834  41.9670 319.0072 15.30547279460956
